{"type":"FeatureCollection","features":[{"type":"Feature","properties":{"Boundary_n":"B7a","ID":"BND002","label":"B7a","desc":"North of England boundary (Harker–Hutton Moor).","color":"#3b82f6"},"geometry":{"type":"LineString","coordinates":[[-4.982299804991954,53.758454448913774],[-4.43932017208823,53.8153374775426],[-4.376120105758218,53.8188424215406],[-4.2249193258661535,53.82422581636836],[-4.049037920463604,53.827858102569465],[-3.8347394899354867,53.83191332823758],[-3.6202212902802557,53.8294476425947],[-3.4440365426522703,53.817873158319635],[-3.306437525771173,53.80146298522863],[-3.232239007124406,53.7881842685892],[-3.1438967391431447,53.76894434450594],[-3.059150294350559,53.7475870961676],[-3.002613984048082,53.7299552597275],[-2.9568721796073305,53.71827556286703],[-2.904005223761999,53.7005860780851],[-2.86187049123015,53.68885549488522],[-2.8303395723133913,53.681063691336384],[-2.8025034029096787,53.67929993734231],[-2.7609780240165382,53.68371900532788],[-2.716250945324816,53.69827393999038],[-2.671566932467897,53.716881325013226],[-2.626903887304536,53.73954176564003],[-2.5716521218478756,53.76024675008751],[-2.5302008695744007,53.77881909752339],[-2.5096118787851083,53.79723837854841],[-2.4994247471543076,53.813543014398654],[-2.4692609218540156,53.827462318131545],[-2.429305895050959,53.847434847939965],[-2.402286660800712,53.867125762244214],[-2.387709753002639,53.880646019698084],[-2.3683514880307257,53.88641277303111],[-2.2563140248723244,53.90714561667695],[-2.2434857183911276,53.911747979086044],[-2.2151715152531892,53.91792670375441],[-2.163756396140741,53.928719991934145],[-2.1018750210153603,53.9425738708875],[-2.0274787207662825,53.96247848119704],[-1.939456825472064,53.98394306092359],[-1.8305297917164578,54.00993536832266],[-1.7217439722065253,54.03281183329955],[-1.5943290391537632,54.054097944364685],[-1.4768267772339527,54.07071323392864],[-1.3669588637604875,54.08114014280342],[-1.2726460209970014,54.09000159189998],[-1.1861059134570837,54.09729433646452],[-1.0837427678144422,54.10596906202268],[-0.9655358519979131,54.11296012451021],[-0.8525002834612679,54.119854257168306],[-0.7551560518102748,54.12372596897836],[-0.6498648098130957,54.1289702485782],[-0.5548795763313592,54.13577541310492],[-0.45410166655864265,54.14710045961857],[-0.37701057657682213,54.1585928564752],[-0.27876669372790275,54.16826164136171],[-0.1742125531667398,54.18403776363191],[-0.08845161824751814,54.19686063011405],[0.01675203967494099,54.21713054413936],[0.1121138624648097,54.242172801433696],[0.1912648271101034,54.26122897603646],[0.20223411890953003,54.26417852391979],[0.2838660675649862,54.27850617202229],[0.3819451145754443,54.29410514313794],[0.50250733504555,54.31554512101059],[0.6014753771869437,54.33261896589263],[0.6341456750828912,54.335167734503386],[0.7250976560320623,54.3437499360108],[1.062927246095569,54.38695529525076]]}},{"type":"Feature","properties":{"Boundary_n":"B8","ID":"BND003","label":"B8","desc":"North Midlands boundary.","color":"#0891b2"},"geometry":{"type":"LineString","coordinates":[[-5.262451171484316,52.19582333088209],[-4.919532265801365,52.21047039479295],[-4.849030089367091,52.216552580837],[-4.7032825816257855,52.23017503634892],[-4.586858642812047,52.24303216610163],[-4.428954559205522,52.25805658734169],[-4.302533290678753,52.269331382437436],[-4.190529554795091,52.27872719790191],[-4.032115636527351,52.29466429881843],[-3.8935803831281532,52.30869278474428],[-3.7572338646510848,52.32396550430463],[-3.628785535923669,52.35549768766822],[-3.461257924913241,52.41147651902617],[-3.3321256500786376,52.46847951721601],[-3.234166062713598,52.5254056395587],[-3.155251592786726,52.57325248081742],[-3.0762833829717238,52.61782662529856],[-3.018931923569369,52.66878181043227],[-2.948600090421792,52.720077202800745],[-2.8703964401435655,52.78682456580112],[-2.8272018646742936,52.83035634387023],[-2.7293302831660067,52.91067125787232],[-2.72696079980102,52.91367473090418],[-2.7075875656136077,52.92723489487457],[-2.7004064745790974,52.934756580751646],[-2.6932741259001314,52.943780577811474],[-2.6599513536719996,52.98894960763836],[-2.642983241183572,53.00405218086349],[-2.6285724111878044,53.0206747972042],[-2.6092034011160194,53.038846289824455],[-2.589789834133512,53.05703568165143],[-2.5702862621012628,53.07373087867718],[-2.5506601223667076,53.08741517157297],[-2.5234552320732746,53.101118001294765],[-2.4887920554089646,53.11939162722189],[-2.453811918085478,53.12704984187678],[-2.413706216168919,53.131668210419605],[-2.3610098904940173,53.13628091233433],[-2.2982358213260454,53.14086946205605],[-2.2404641267180523,53.14541534524205],[-2.1751812611062746,53.149991284670065],[-2.1098230125219857,53.152941486360575],[-2.0419385314380065,53.15427842031289],[-1.9816300480882205,53.155632802012235],[-1.9238484258640938,53.15699292858087],[-1.8685799707889716,53.15690641469935],[-1.8183142976666318,53.15829642034356],[-1.7629718958363012,53.16267359431103],[-1.7151607765485437,53.16259889122592],[-1.6799106006936313,53.16253647377932],[-1.637272419586452,53.15778096312101],[-1.602047065919294,53.15617948369629],[-1.5719812262525465,53.15148913971206],[-1.5493949671039786,53.14986061497547],[-1.5243453533553293,53.14817534301772],[-1.494379882525493,53.1434143563875],[-1.451648654861458,53.14021552362755],[-1.4138657300193815,53.1400457172361],[-1.3811135749314758,53.14137191058523],[-1.3406398128770434,53.14719054220978],[-1.3051739634076398,53.15302794178614],[-1.2721201766048011,53.16040695022066],[-1.241394957611135,53.17085378717257],[-1.208010365985558,53.18281929667324],[-1.1770894590112562,53.19481134876481],[-1.1486489397967148,53.20682623194512],[-1.1276873032264234,53.220426230486254],[-1.1142933429633786,53.23409665853406],[-1.106196635066624,53.243223809631154],[-1.0952908767724807,53.25360723178835],[-1.0517772811965074,53.31507333236845],[-1.0447482358423485,53.32343998077055],[-1.0359358384681059,53.33179508997147],[-1.0288895540096519,53.340173634605605],[-1.0112110418560292,53.35691223021531],[-0.993489454874407,53.37473119668743],[-0.9721559765170582,53.38935475052137],[-0.9525645820897353,53.3997613886772],[-0.9329455541939069,53.41123850605225],[-0.9186558107170413,53.42065697723775],[-0.8989883327453185,53.43108462355654],[-0.872132090723369,53.4435683143263],[-0.8470175764999226,53.45608052979263],[-0.8236581153296925,53.4686234427178],[-0.8038906165586468,53.476942977436515],[-0.7895100397564648,53.48211858930153],[-0.7751142895927502,53.4872945213252],[-0.7589027191850733,53.493520475689486],[-0.7373016169759693,53.49967873898265],[-0.7048958177877012,53.5056891366444],[-0.6689601723739996,53.508437135665375],[-0.6348822214372944,53.50798715628231],[-0.6008008180032789,53.50751988653361],[-0.5649362352190224,53.505928331127635],[-0.5238471804029814,53.50217227483068],[-0.47381350808689154,53.4971710127321],[-0.4345422367347851,53.49229319877214],[-0.39359258043316453,53.48523522942236],[-0.36346943236833335,53.477281455275],[-0.3403450683701408,53.47369068088029],[-0.31549513289400016,53.46897627013881],[-0.29052533757419496,53.467498284718154],[-0.26377233682381984,53.466002768812764],[-0.24053726448312318,53.465642336724514],[-0.21724589098505476,53.46633915213022],[-0.18858551361051923,53.46694085163906],[-0.16350136409664628,53.467585087282025],[-0.1384244388367506,53.46821415406006],[-0.10787938822312526,53.46984814667468],[-0.07539654141720575,53.473582541001534],[-0.03926175732419779,53.47829757047659],[-0.012123268473999358,53.48209715396053],[0.018611361025534734,53.48582370260186],[0.04764614865086969,53.49064876682718],[0.08021308746407387,53.494328293516006],[0.12372500760307047,53.499939688066206],[0.169165597614267,53.506574583949934],[0.20918246000258026,53.512243566587365],[0.24196807346788776,53.51696915140527],[0.27675629546672553,53.52379849150726],[0.3078954804921068,53.529625552477356],[0.34627529616801667,53.53530168922162],[0.3847967541669277,53.54204522500719],[0.42516706540777705,53.548745650891156],[0.4582656276566581,53.55451822553576],[0.4969318180490063,53.56124759699907],[0.5322562284422361,53.570210346630226],[0.5674131508962432,53.57701335368338],[0.6008030476226054,53.583856463305224],[0.6435416308416393,53.59265353982904],[0.6807850164154274,53.600487057531744],[0.7215820253902051,53.6071578201773],[0.7571329696108933,53.61502668843099],[0.79638128396914,53.62281128481299],[0.8134200588886529,53.62785621799015],[0.8170611224728646,53.627768193247555],[0.9424430382156856,53.64984079921357],[1.082153320619284,53.68532195604348]]}},{"type":"Feature","properties":{"Boundary_n":"B9","ID":"BND004","label":"B9 (Lower Midlands)","desc":"Lower Midlands boundary. Voltage-constrained at 11.5 GW — explains high DFS demand in West Midlands (Zone 6).","color":"#d97706"},"geometry":{"type":"LineString","coordinates":[[1.5867697510232122,53.634422088208844],[1.4714397871165374,53.62318952527643],[1.4467057643595922,53.620894024639604],[1.4171330751313462,53.618720916337296],[1.3798527768842066,53.6137997514574],[1.3232544178571288,53.60936924769266],[1.2788261757874577,53.6046190691148],[1.221954948062432,53.597231441577826],[1.1533260765372688,53.59160338978469],[1.087215090004463,53.5858830891333],[1.0332411703437856,53.57985217883506],[0.9865720875318403,53.57364633870764],[0.9471687687237705,53.56725164005123],[0.9000713019490831,53.55665506957589],[0.8575197831115703,53.543033730122595],[0.8147252458734329,53.52651452862268],[0.769483079580482,53.50861263296668],[0.7218143958177735,53.48933468914464],[0.6692076255315555,53.46728960063462],[0.6340371682807131,53.450690388250855],[0.6109802822143138,53.435286180612806],[0.590352248257716,53.419848544274934],[0.5743627708252461,53.40289334065522],[0.5579784145722329,53.38164998605807],[0.5415044013071224,53.35900898787452],[0.5342529176380708,53.33334751317727],[0.5300770712998428,53.3148225878922],[0.5284056408077049,53.297699764132844],[0.5310339679433014,53.27622794936042],[0.5339351673741248,53.257631500093666],[0.5366991977098792,53.237642297753894],[0.5372500558454476,53.219155019888326],[0.5353158587399207,53.19932354604487],[0.5335290092564264,53.18093686184677],[0.5248683365045963,53.16414172406138],[0.5185676232972014,53.14731703185563],[0.5148844885283665,53.13327610920516],[0.5088783446599336,53.11930477789327],[0.502617877912769,53.102540660423195],[0.49131709151060926,53.081683131171644],[0.4803184485376164,53.063665320997835],[0.4670191230341629,53.04571838009923],[0.44334211304811794,53.015430383605356],[0.42294183239971517,52.99490911806141],[0.39773508550581477,52.971734553007266],[0.372840031941962,52.95137374090548],[0.34789317293160593,52.92965193618796],[0.3232477909528484,52.910734730223695],[0.3009570598205187,52.89179105451359],[0.27184356442899116,52.87301051402403],[0.24061166649528332,52.85567868961988],[0.21434295426399783,52.84240259990015],[0.19280132422176166,52.83042354031419],[0.17357213444648778,52.8184004004582],[0.15219776751303016,52.8078075540754],[0.13075247104973187,52.795845757875504],[0.11191064625938908,52.787964027517894],[0.09299163445643899,52.77871239316251],[0.07656252973703204,52.77216219183175],[0.057777009701283084,52.76428673604409],[0.043562436057641214,52.75632622327662],[0.027176316234033493,52.749780964619916],[0.008351385208300144,52.74054259616397],[-0.024173891611781073,52.730193376123445],[-0.029060427196895947,52.72480881217701],[-0.043028807833195515,52.719593590571776],[-0.05253091237165109,52.712929551257844],[-0.06883361378021391,52.70639223990997],[-0.09184792234367478,52.70134309700638],[-0.11484570046866338,52.69629079478445],[-0.13775246180659906,52.69259991955067],[-0.15603995258169334,52.690190129470984],[-0.17417354956961617,52.69050516827894],[-0.19903317254284048,52.69229637227983],[-0.23055771886356524,52.69692493373872],[-0.24862727153129072,52.69859230918774],[-0.2620970239584608,52.701546697222355],[-0.2755704483174668,52.704499428705724],[-0.2844456363569634,52.70874270441232],[-0.29338984106829,52.711620738206534],[-0.30447778672044024,52.717266762051494],[-0.31115932324411233,52.720108322940796],[-0.32225779186353526,52.72575574253353],[-0.3448702977260041,52.74682736079411],[-0.3538577625256494,52.75119367634715],[-0.37870882575168713,52.761430929893564],[-0.4152283739902032,52.770417640162016],[-0.44968502134662464,52.775133478127536],[-0.4933881616343001,52.779979951613555],[-0.5464913954614872,52.78210708477423],[-0.5882268964540458,52.779824227706],[-0.6208792717609414,52.77318416072052],[-0.6606466298380269,52.76100780156885],[-0.71865626345265,52.729220138686074],[-0.7450154994458614,52.69437852767859],[-0.7677802941672713,52.647879755574216],[-0.7821580592544776,52.612245680270554],[-0.8037247068852871,52.55181969721532],[-0.8276876486972975,52.501522625352344],[-0.8516505905093079,52.46503947424332],[-0.8840005619555222,52.44130919883872],[-0.9187468275829374,52.420854399059735],[-0.9834467704753657,52.395272548250716],[-1.0810957583593082,52.36601797837602],[-1.155979951521841,52.338940242462165],[-1.2705499924297827,52.30327971281995],[-1.342202643037524,52.27879188074076],[-1.3770380897376375,52.26604077931984],[-1.4050638852900192,52.25608011040886],[-1.4386726761030673,52.24541863046546],[-1.474487422056825,52.23341012797512],[-1.5125277274726159,52.22004288746933],[-1.555009282652236,52.20669420357468],[-1.6018984412600048,52.19064279792685],[-1.6420781196094938,52.18133746235406],[-1.6778038911365911,52.17607103515019],[-1.7246713544993781,52.17220395934533],[-1.7894939174103113,52.167000071895885],[-1.8543176746209156,52.16311885245313],[-1.8923229298592903,52.1618562888367],[-1.925819003244385,52.159219188814575],[-1.943741578810773,52.159251002331935],[-1.9706513017161453,52.15928699230091],[-1.9975860284723697,52.159313345134834],[-2.02453374863353,52.15932982251338],[-2.060637426076312,52.1661360473408],[-2.1058748655325985,52.17087889464535],[-2.1579286489879337,52.1750626280379],[-2.2349287941285074,52.17921834575008],[-2.375501807862122,52.185990557318426],[-2.4911470300114047,52.188505960182006],[-2.622426292339469,52.19917505648375],[-2.7488791954185103,52.20842734194833],[-2.896154417492312,52.220117534796415],[-3.0298842676447753,52.2275493325357],[-3.0412337046716966,52.22885019558011],[-3.159049236433077,52.22925597508322],[-3.290296427138344,52.2309622722911],[-3.419511630257489,52.236749568837574],[-3.5598571748686823,52.239273336295476],[-3.6775304311843793,52.23925383000028],[-3.813305482661861,52.23479916145221],[-3.9381608156690504,52.22771825309495],[-4.046568583573219,52.22055534815088],[-4.150449814507283,52.214745180945386],[-4.259301210782212,52.208847599637075],[-4.365284869600998,52.19730694426011],[-4.478648123212281,52.188355136680286],[-4.5806458806028445,52.183643710788644],[-4.653258880992496,52.180818298126],[-4.701197335288725,52.18124414240332],[-4.749290964906038,52.183037678346246],[-4.767515673109756,52.182659886644515],[-5.267944335762422,52.15539958012657]]}},{"type":"Feature","properties":{"Boundary_n":"B7","ID":"BND017","label":"B7","desc":"North of England boundary (Cheviot).","color":"#2563eb"},"geometry":{"type":"LineString","coordinates":[[-5.583801269612876,54.447685866409635],[-3.0710987077391105,54.64290092683638],[-2.876119588048482,54.64704172119855],[-2.7494783894160832,54.648141735053066],[-2.6987894305876803,54.646471256943016],[-2.644343554811144,54.64061625133898],[-2.578538386337413,54.62011013037831],[-2.512928782637175,54.59961947595811],[-2.451063487390002,54.577038830377774],[-2.425640373504393,54.5688319977985],[-2.3812866213804114,54.54498637751936],[-2.3529009221397814,54.53187275482383],[-2.3231514846532377,54.513270468057726],[-2.2647957451275147,54.50310440124718],[-2.19182749544251,54.49087530225347],[-2.1228071436347022,54.468284061760066],[-2.0363334429339943,54.45401792638627],[-1.910571911664363,54.43769291819365],[-1.7852578983332705,54.41919418386455],[-1.6423557457210338,54.408830444269654],[-1.5101917357599746,54.408656504594084],[-1.4959033754403777,54.40862897274893],[-1.3171933072252955,54.42054986508424],[-1.199067073186825,54.4345641570103],[-1.0770871254704275,54.45673528010917],[-0.9691658539209699,54.478907900579195],[-0.8248669381586069,54.504938321246584],[-0.7089214521632243,54.52695315026773],[-0.6144634543248912,54.54697827782532],[-0.5271234124155058,54.5649342982793],[-0.4139665703009427,54.58885448134933],[-0.31844082808169105,54.61501480189169],[-0.230257196012758,54.634943979880795],[-0.07966119670680882,54.66035458689471],[0.03789426281002761,54.67558028270395],[0.10439481946536942,54.68726613722255],[0.26916503893545496,54.71351548435218],[0.585021972785853,54.74523516017456],[0.9201049802607031,54.7690086260473]]}},{"type":"Feature","properties":{"Boundary_n":"B6","ID":"BND019","label":"B6 (SCOTEX)","desc":"Scotland export boundary — SCOTEX. When flows approach/exceed limit, Scottish zones are excluded from DFS.","color":"#7c3aed"},"geometry":{"type":"LineString","coordinates":[[-5.625000000349702,54.4844001475488],[-5.416490201861278,54.52148730109815],[-5.3816311609492695,54.52884352340994],[-5.343164405113157,54.53450319356758],[-5.299937356923408,54.54028166956346],[-5.2366994642088684,54.549343075722454],[-5.168456692322423,54.55761067998896],[-5.084171014280855,54.5653761298046],[-4.98273390504562,54.575359809607555],[-4.8623396590479615,54.586660786666016],[-4.730688747387717,54.5981312229776],[-4.600718005831254,54.612175858029524],[-4.594490674604914,54.613234391553995],[-4.438615088315601,54.6259041475584],[-4.3215452519118,54.631171723196545],[-4.20620712216089,54.639966273524756],[-4.19991633297235,54.64101043228568],[-4.098772569098742,54.652189324577705],[-4.002418247304206,54.67151913949677],[-3.918440328058637,54.69433633105689],[-3.8435768704761704,54.717978530085134],[-3.7827125656323233,54.741458540879016],[-3.7036529298387677,54.76910045582145],[-3.643522520347972,54.79181673175679],[-3.579614553568718,54.82039995809161],[-3.5283561548126277,54.84606169089438],[-3.4982567047830457,54.86574809329995],[-3.4878952827410785,54.880380549522776],[-3.4639296641226456,54.904979021065],[-3.4217293952953014,54.92704612407943],[-3.36778558313813,54.94643851292709],[-3.330884099121818,54.95384237052899],[-3.244138243784903,54.95799962248464],[-3.2407338062201347,54.95803816652824],[-3.2276825308240977,54.958186301057054],[-3.2040952605877346,54.96005192845377],[-3.1820999558482304,54.96125438138465],[-3.155168292182907,54.96411227486164],[-3.1300586495869425,54.96791636844568],[-3.117221482985031,54.96998272002656],[-3.1039311983660696,54.973348484944665],[-3.0901331673117625,54.97769285614046],[-3.075293607114247,54.98335552733579],[-3.054247321856394,54.99040464196072],[-3.033672536758104,54.997793933243486],[-3.0198422182437525,55.00416389065112],[-3.010989878380144,55.008530572228175],[-2.998769484823811,55.01427027485336],[-2.9893821283824877,55.01999899495768],[-2.982150848882498,55.0240579869866],[-2.9761033622802984,55.0287826760797],[-2.971766067849728,55.033497606629275],[-2.9691711487294583,55.03853769156127],[-2.9681847417323866,55.04155783622519],[-2.9666622542595746,55.044944428542586],[-2.9644522368811863,55.046659931210925],[-2.9598910877035114,55.04806487009774],[-2.9564667112696834,55.04911948437679],[-2.9507625876232737,55.05152803159341],[-2.946231779772745,55.054261252055205],[-2.9423151522224775,55.05734975418785],[-2.9378439847120603,55.061132719999094],[-2.933377508964838,55.06494318617918],[-2.9282798674219066,55.06840753208201],[-2.9230965357764376,55.07049953592491],[-2.9132791945791046,55.07402224333191],[-2.9016894245272624,55.078229639686185],[-2.892450518276746,55.083099861569416],[-2.8890177106987385,55.08588330107351],[-2.890858423277564,55.087607127866704],[-2.8938807362069388,55.0896258243724],[-2.8886943522625192,55.093123387634314],[-2.8822923484131024,55.09595624758285],[-2.8770790567530184,55.09914995960299],[-2.8753941966847947,55.10194354345983],[-2.873693602078049,55.10438506162136],[-2.869590802273649,55.105850238897474],[-2.865478448071883,55.10728712889795],[-2.861347548050844,55.108338869843],[-2.8554439349895806,55.109769782949165],[-2.8489584389807305,55.11187136457187],[-2.8436662390056995,55.11429599616331],[-2.8437071248838492,55.116064090285604],[-2.8455512180142364,55.118528614903724],[-2.8443849268228405,55.119601851444315],[-2.8408179790664576,55.119985139802395],[-2.8342914964553643,55.12145416437825],[-2.827764663108667,55.12286243075667],[-2.8248069601730204,55.124303711247315],[-2.8272271230332535,55.126444044656985],[-2.829639638958099,55.12786870387767],[-2.8320551442294577,55.129293685055586],[-2.8327003295565305,55.13179041709414],[-2.8315704033514066,55.13537619035896],[-2.829800089702303,55.136807307611214],[-2.8268132388398612,55.13714780262905],[-2.8208309054219285,55.13790884761528],[-2.814841477252344,55.138309705128854],[-2.8100417073588346,55.13836843895236],[-2.8058524737126618,55.13835980546072],[-2.8040585789402144,55.13835297780778],[-2.79927956000364,55.139061802760075],[-2.795098618106693,55.14013660771834],[-2.7909160034707274,55.14121169686239],[-2.7837397849630747,55.14373226633108],[-2.7783429839415135,55.1451993456733],[-2.7636230137910047,55.153729605936626],[-2.756681192782765,55.15617798952265],[-2.75180016104855,55.15741121635461],[-2.748257477900211,55.157836928431564],[-2.7454011375523915,55.15826058555764],[-2.7403540370091264,55.15910679814028],[-2.7317378771012955,55.1607835121494],[-2.7268085086057567,55.16242389894383],[-2.7176951728938548,55.16529386132272],[-2.714208972565985,55.16652068767962],[-2.711455904965988,55.16774155962531],[-2.7087625586451054,55.16936196258457],[-2.7020823935875455,55.174223764115496],[-2.6961211438756436,55.18151986494986],[-2.6934391478982893,55.1843645626745],[-2.689489829991601,55.18964740970023],[-2.687483286024758,55.191685078303756],[-2.682187151515791,55.19699343280077],[-2.6795089111072916,55.19985612236224],[-2.673592813657365,55.20722583630334],[-2.6730310719264025,55.20967607968736],[-2.6690201441642785,55.21460368101516],[-2.666253684759681,55.21707229395129],[-2.662794607984722,55.21914548937287],[-2.6599796769205004,55.21998736632395],[-2.6570750393815388,55.220007187381846],[-2.6506489966538425,55.22087602241057],[-2.645677093822769,55.22214341088978],[-2.6407415020186704,55.223823902950826],[-2.63579035643977,55.22550433655597],[-2.634516179877778,55.22757651124705],[-2.634018746867639,55.23006221939595],[-2.6334403236119783,55.23172261071],[-2.631462162248966,55.234220901273595],[-2.6280791690184064,55.2375606344158],[-2.626042741479296,55.23964562354672],[-2.6254999043970315,55.241735594022494],[-2.6249555780374294,55.243826040239654],[-2.6222313975608813,55.24593859538993],[-2.6179985171178264,55.24764488360455],[-2.614482186803457,55.249344330676365],[-2.617554457072515,55.25100016782353],[-2.621976485626249,55.25138649948742],[-2.624904867065936,55.25177442115268],[-2.6278685774728388,55.25258128659716],[-2.630796455292114,55.252968913284754],[-2.636003683723004,55.254591291155236],[-2.6389670919576815,55.254987625978245],[-2.64197816605946,55.25580685170489],[-2.6449908076795623,55.256626424569916],[-2.646497704505407,55.25703633825645],[-2.647429584707538,55.25913368227369],[-2.641154741398168,55.26255755418784],[-2.636210986447793,55.26511940973303],[-2.6305311004298915,55.2685110760254],[-2.624156356830383,55.2719325791253],[-2.617707923681678,55.27574641146777],[-2.6126338164974072,55.279104487182394],[-2.607566397571133,55.282057555911535],[-2.6016767995446344,55.284568014302465],[-2.5972273776413317,55.28745802167041],[-2.594287311310325,55.28912383409773],[-2.5906373831086853,55.290810737425666],[-2.5864940868326016,55.29469049367142],[-2.5815659809852036,55.2981549726739],[-2.578074046579957,55.30118464115834],[-2.5744932483646608,55.30293394664438],[-2.5716780852753804,55.30511088695795],[-2.5703748678058678,55.307712617543295],[-2.568281606710741,55.30946989821727],[-2.563175677915183,55.31122388287594],[-2.556547951426751,55.312145439760286],[-2.5536195978660885,55.31302743546781],[-2.5537232726109096,55.31557918802917],[-2.553827038187194,55.31813304680269],[-2.5501863712040067,55.31987780711518],[-2.545657419554231,55.31985620360098],[-2.542654596732234,55.31985578091964],[-2.5389021323275074,55.31985514959554],[-2.534499320487214,55.32159419021975],[-2.5293422823204423,55.32333399167045],[-2.5241813662769914,55.32507473111401],[-2.520521111160292,55.32681877646544],[-2.516880431586628,55.329004847595684],[-2.513282849324014,55.33248285060313],[-2.5103912258743435,55.33509321198222],[-2.5074905714326974,55.33769905606664],[-2.5045823240150185,55.340708992526075],[-2.5010020824800563,55.344675822930924],[-2.496621109776356,55.34776894038434],[-2.492154163683665,55.34909054269446],[-2.4891907986163915,55.3500034669865],[-2.4825067412930366,55.350216682753754],[-2.4780188221109256,55.35070801296452],[-2.472785439596294,55.35204001683337],[-2.4706045737420372,55.35387351145346],[-2.4661422294802833,55.35568009296195],[-2.463940064082635,55.35748266079622],[-2.4594212262085766,55.357938057695264],[-2.4556403342339768,55.35793255384437],[-2.4511048472109,55.357925863787614],[-2.4473138072863208,55.35747091924759],[-2.4442923487128496,55.35746633180582],[-2.4397840886647373,55.35835771823419],[-2.4352725784666522,55.35923920582472],[-2.429985456963209,55.35921710228753],[-2.4269686946494744,55.35923523711653],[-2.422428845015133,55.35838999130509],[-2.415611717706554,55.356332812809114],[-2.4118278462780154,55.355429054407416],[-2.4080476728617555,55.354526011866014],[-2.4035131975759327,55.353187504100106],[-2.3974687650713804,55.35100500058036],[-2.392939546322964,55.34926539158459],[-2.3891715101570417,55.34841497647006],[-2.386156417884308,55.347562951569],[-2.381643728675101,55.347593443082985],[-2.374877776388246,55.350732893608225],[-2.368871100121112,55.354238249495666],[-2.3636004497009253,55.35645000976018],[-2.36284736461414,55.35645009879307],[-2.3575659484097287,55.35780318277073],[-2.351532198052439,55.359139348702065],[-2.345485423713285,55.36137076544851],[-2.3416855344598275,55.36362278386446],[-2.340928540020059,55.365369269975865],[-2.3424446971649786,55.36709278200636],[-2.3424436242738125,55.36753109268584],[-2.344710394269214,55.36970688366582],[-2.3469806050708257,55.37231860841713],[-2.346192422142508,55.375473408571004],[-2.3416377750632478,55.37770093215239],[-2.33707803512317,55.37993057453646],[-2.3325130656254487,55.38216236000496],[-2.333248943983506,55.384398564742014],[-2.339263355319531,55.386291559408],[-2.346087305784465,55.38896620252825],[-2.348379683075848,55.39157823304906],[-2.3438220817236584,55.395537160211816],[-2.3407362119066306,55.39874729744987],[-2.336898761568534,55.402353958368586],[-2.336114292840307,55.404619993617885],[-2.3322984163388014,55.406826621451515],[-2.332290493311575,55.408611177663765],[-2.3277484583246633,55.40763162260135],[-2.3246941996775377,55.406759954708214],[-2.3224007503942516,55.40677305783045],[-2.3139834188996247,55.40771143293631],[-2.30783833696961,55.409986648465136],[-2.3024895615440073,55.411745020016724],[-2.300169343040693,55.41486088761991],[-2.300044601676973,55.416856297979855],[-2.2916849544969864,55.41893974927007],[-2.2863467910714803,55.42022155388169],[-2.2778318606518155,55.42127617805325],[-2.271621038280273,55.422729887174626],[-2.2700930595470368,55.425336535252946],[-2.2685400796609088,55.427984634883046],[-2.261531415642253,55.4307785910592],[-2.2522787875359427,55.4325999547242],[-2.2414775691344744,55.433129828978466],[-2.231414395557863,55.43455266167603],[-2.223768536688567,55.434518824684055],[-2.2166986342345467,55.43515967078224],[-2.2120706105701515,55.43605379564622],[-2.208223180455377,55.43649760568003],[-2.203609125061007,55.43693969980734],[-2.2004823073125976,55.43873965511102],[-2.1965107617621697,55.44235865832548],[-2.1917071877364833,55.44648346723829],[-2.189276934482905,55.44922868015954],[-2.185286213587858,55.451995437239695],[-2.1836118818827686,55.45562645359803],[-2.1788515220800377,55.458821819471446],[-2.1772882170774897,55.46101986687341],[-2.1749397301843487,55.463233137099685],[-2.172588853792547,55.465012815389166],[-2.1694678672482155,55.466789024993545],[-2.1686187174797737,55.469923329598046],[-2.171472117044516,55.473685352896794],[-2.1758315635757413,55.47795665057902],[-2.1817376497726855,55.48094851066532],[-2.1845741636666958,55.48260592252536],[-2.1881928440244565,55.48383320483856],[-2.192661327058545,55.48498152577687],[-2.196583341547921,55.48582472293266],[-2.1982253399274327,55.4861505203303],[-2.198950562218613,55.48974382181995],[-2.1996052443864755,55.49344526049045],[-2.202716126148232,55.49654086996528],[-2.2050187988784273,55.497920686290705],[-2.2065109288362237,55.498905845928114],[-2.2102046935916633,55.501880522668046],[-2.2116643868019423,55.50690689743545],[-2.2130279307943397,55.512544083642574],[-2.2150771188139515,55.51703392287733],[-2.219384427149521,55.521278864128305],[-2.2215885188949756,55.52555919280258],[-2.2215425095790806,55.53145254010271],[-2.2219884069393743,55.53788616591391],[-2.2233620062515342,55.543647729259355],[-2.2257209369716406,55.54637097623966],[-2.2303152540457063,55.54892775061524],[-2.234728226426455,55.55277840839688],[-2.239271554638492,55.55596125750604],[-2.242419202484143,55.559662389507714],[-2.247037333605988,55.56364666496164],[-2.251658217552631,55.56721128347403],[-2.2555051629328773,55.57120850466879],[-2.2611845822026453,55.57465419143785],[-2.2658809201682857,55.577207118513755],[-2.2706358858374074,55.57779449991631],[-2.275429256155178,55.57782693306656],[-2.281048892092656,55.57870730819575],[-2.2866828659214775,55.58000481497026],[-2.2922615818064855,55.58240422237702],[-2.289801824494532,55.584893928012434],[-2.287355766555322,55.58732846653557],[-2.285706319990652,55.589777531807734],[-2.285604042792272,55.59380072902047],[-2.2862521769962996,55.599396612963346],[-2.2869408472422497,55.60395779811394],[-2.2885011512071287,55.60599493971479],[-2.291692537580502,55.60751957746658],[-2.2949090618037076,55.60850136284768],[-2.2997368383843195,55.60997476981983],[-2.304577004025475,55.61094597018042],[-2.3094015763216476,55.613403559226924],[-2.314222655651008,55.61732307629899],[-2.314990399687133,55.620346812855196],[-2.314966761007156,55.621872864341306],[-2.3125133088420853,55.622913263936034],[-2.3100497105256754,55.624463715827865],[-2.3075395102401335,55.62856395796037],[-2.3075039141742764,55.63060601885275],[-2.3115848775400423,55.63005702950837],[-2.3180991320692215,55.62999557703433],[-2.322984101035388,55.62994924036518],[-2.327028627469133,55.630525860480155],[-2.3278186360211635,55.63208681825212],[-2.3236083987085863,55.638848796434836],[-2.3183511293011065,55.6429193510473],[-2.315888185691165,55.6436401567679],[-2.3115516206107714,55.64507563932934],[-2.3090986684687214,55.64615130134155],[-2.305380669682109,55.64723190692702],[-2.3023228344312088,55.64866712598711],[-2.299179932307993,55.64903374810905],[-2.2966431534587173,55.6490418761817],[-2.2921001265195855,55.64763034076765],[-2.2888553779732774,55.64586764797361],[-2.286241269119216,55.64481009021355],[-2.2830287882479183,55.644106933688086],[-2.278534813031172,55.64340952652851],[-2.277901317092074,55.64341143039327],[-2.2722238331633093,55.643783756914914],[-2.2703233768223186,55.64378935069806],[-2.264691993940346,55.64487224236018],[-2.2627912633060987,55.644877714734776],[-2.261478248622211,55.64417047079064],[-2.2594186167756907,55.64168963067197],[-2.2581073099044033,55.64098340835767],[-2.2542654780693288,55.640284627033964],[-2.248583851863202,55.640302278027775],[-2.2423483700811744,55.64068351952888],[-2.2386040778158645,55.64140543501289],[-2.236125369989793,55.64247628655141],[-2.233627336632253,55.643191908579766],[-2.23176353306053,55.64390680845255],[-2.229938512752142,55.64533279597181],[-2.2319647320866807,55.647463242234906],[-2.23713821345774,55.64887739377673],[-2.2403422721780544,55.649227278616074],[-2.2422933828332816,55.650288377007044],[-2.244862897005021,55.65099269905386],[-2.246170911458364,55.651701785708894],[-2.241865517779388,55.653502925419744],[-2.2381371021455156,55.65529400081755],[-2.230609991557799,55.65780479105832],[-2.227507652456154,55.659241583932],[-2.2225947568425113,55.66212056561166],[-2.2177156604493007,55.665368154217006],[-2.2172274032220116,55.66788599514264],[-2.2185589412421223,55.669314741781996],[-2.2217700137750853,55.670375318566116],[-2.2218105048508505,55.67109477800164],[-2.215072399171845,55.674381671477015],[-2.2101507459601066,55.67764193153],[-2.2058518094134456,55.68090341016431],[-2.201563172802139,55.68453101449478],[-2.19855020922472,55.68816298053718],[-2.1979936331995873,55.68997425290951],[-2.1955161565453523,55.691793716307004],[-2.1898066261748,55.69254083529138],[-2.1872974376266257,55.69363726804557],[-2.1861003257693596,55.69545738794813],[-2.1848907798855635,55.69727447173957],[-2.183021253927677,55.698373079953754],[-2.1773720347915173,55.70094140432242],[-2.169134520042008,55.703510218821584],[-2.163495427272096,55.707168873145],[-2.161644762795504,55.70900383186143],[-2.1675368276624454,55.71084426654972],[-2.1714332681307837,55.71193000546543],[-2.175310571025989,55.71335943558955],[-2.1766681696003047,55.71518499639052],[-2.177369755909467,55.716647797657814],[-2.17425532002693,55.71886503029698],[-2.171081922792439,55.71926119245012],[-2.1678889500149694,55.71928810286369],[-2.1601959540799953,55.72004729884385],[-2.1557470438909263,55.72153314254053],[-2.153212060987755,55.72264403189661],[-2.1512904822698715,55.72372989671745],[-2.1500659168085576,55.72628749846935],[-2.1501199831506597,55.72776271937404],[-2.150819413784859,55.72923735122281],[-2.1521648984912076,55.730711341855006],[-2.1522874805827428,55.733680497656906],[-2.1523679735031465,55.73554150343768],[-2.1524518119015283,55.73776564287016],[-2.1505586427671233,55.73924662573125],[-2.1473368107451734,55.73962525739978],[-2.144086034942518,55.73925935113819],[-2.141458994736752,55.73851037595312],[-2.138845706064444,55.737774014659124],[-2.136220789158074,55.73666767767124],[-2.131666431660449,55.73593225616873],[-2.1284338446461675,55.735938909353266],[-2.125213073824227,55.73631646183532],[-2.119435123032474,55.73780783006737],[-2.116891409510913,55.73929736368245],[-2.113710163892904,55.741162338171414],[-2.11115247490676,55.74228342853747],[-2.1144438236235032,55.74413718668191],[-2.1190201209817587,55.745255070964774],[-2.119700680242147,55.746011594159846],[-2.1152058830450073,55.74751081707065],[-2.1126328714098577,55.748261544135005],[-2.1074850144218544,55.75012441151245],[-2.10298788528263,55.75163714763629],[-2.0997870605243634,55.75350890121492],[-2.098523380849315,55.75500450255579],[-2.099824717836384,55.75500533802595],[-2.103768365517624,55.75650530737411],[-2.1070401171076583,55.7572508237666],[-2.1109501265470385,55.75833272257718],[-2.1116199263184967,55.75943656484565],[-2.1058287617879046,55.76170172865192],[-2.100654412571032,55.76284265806227],[-2.0948073614704867,55.76287475036944],[-2.0908962143887493,55.76287155238034],[-2.0869860079978366,55.76286906575485],[-2.0830716440410697,55.76249814127624],[-2.0784942099397767,55.761381326287236],[-2.0752278291009816,55.76063908612497],[-2.0739128574923598,55.75989106332196],[-2.0687053277886207,55.75953111416965],[-2.062858999743014,55.759563531132144],[-2.0570114998807867,55.761021521026414],[-2.053774358699627,55.76215472975701],[-2.0518381965754884,55.76329145843416],[-2.0505768560370257,55.76631526513745],[-2.046683840187029,55.76782101352899],[-2.040833829417636,55.76969439577983],[-2.0356230360741847,55.770095293762836],[-2.031711977126008,55.770119189648945],[-2.027145676631619,55.769774296946316],[-2.0225753552683727,55.76900942624406],[-2.0173574410929973,55.76863915197533],[-2.0127923519854107,55.7682716808934],[-2.012140359689795,55.768273270894795],[-2.0082284230032883,55.76828253301256],[-2.0017096484814374,55.76865125325281],[-1.9958382194582214,55.769427020140945],[-1.9893113969034173,55.77094306037403],[-1.982123856830469,55.7728384265522],[-1.9755856299727839,55.774352928045246],[-1.9710056633805946,55.77548837159111],[-1.9670831092980168,55.775869131055636],[-1.961845319206077,55.77700584444422],[-1.9546524938174912,55.77738933694837],[-1.9467943265968302,55.778528265367186],[-1.9369698609702368,55.77966853827247],[-1.9304170534042557,55.780428752285154],[-1.9231996495441306,55.78156726341853],[-1.9159542147152138,55.78384166775879],[-1.9093726378368954,55.78536008400073],[-1.8941772752609722,55.790297639924184],[-1.8689943819850896,55.79829410398975],[-1.7033048593317517,55.842769005585176],[-1.6908996065315591,55.845073243135744],[-1.6715921487586345,55.848916106493164],[-1.6495073093147994,55.853529679850915],[-1.617730332288943,55.8620100178481],[-1.5817285111618278,55.87204559213041],[-1.5428571161629066,55.881303592786665],[-1.5094523176702523,55.89136691025477],[-1.4675597087135654,55.90533893494394],[-1.4226812705241516,55.921690321151466],[-1.3762121780495136,55.93807735108897],[-1.3096749929065368,55.961561385449606],[-1.2356143142491758,55.98669142107231],[-1.1554321572681943,56.01108485977852],[-1.0746575907751321,56.03637148895309],[-0.9933139251974694,56.061758575997565],[-0.8501320312681743,56.09987132899868],[-0.7268450979228761,56.12599329255648],[-0.7179435201772435,56.128391224175694],[-0.625479393059493,56.1540477211255],[-0.6161042664986667,56.15977080607792],[-0.5795288083078276,56.170022982974345]]}}]}